[{"OBJECT_NAME":"STARLINK-5038","OBJECT_ID":"2023-064AA","EPOCH":"2026-03-09T14:14:00.460896","MEAN_MOTION":14.98345369,"ECCENTRICITY":0.0002868,"INCLINATION":70.0006,"RA_OF_ASC_NODE":124.7539,"ARG_OF_PERICENTER":262.8669,"MEAN_ANOMALY":97.2164,"EPHEMERIS_TYPE":0,"CLASSIFICATION_TYPE":"U","NORAD_CAT_ID":56472,"ELEMENT_SET_NO":999,"REV_AT_EPOCH":15572,"BSTAR":0.00014923,"MEAN_MOTION_DOT":1.689e-5,"MEAN_MOTION_DDOT":0},{"OBJECT_NAME":"SL-8 R\/B","OBJECT_ID":"1968-040B","EPOCH":"2026-03-09T18:37:46.369632","MEAN_MOTION":15.03260494,"ECCENTRICITY":0.00239141,"INCLINATION":74.0322,"RA_OF_ASC_NODE":313.5182,"ARG_OF_PERICENTER":137.361,"MEAN_ANOMALY":222.9441,"EPHEMERIS_TYPE":0,"CLASSIFICATION_TYPE":"U","NORAD_CAT_ID":3230,"ELEMENT_SET_NO":999,"REV_AT_EPOCH":9002,"BSTAR":0.00025747843,"MEAN_MOTION_DOT":3.469e-5,"MEAN_MOTION_DDOT":0}]
